GLOBALSTAR M023         
1 25621U 99004A   25364.87387244 -.00000034  00000+0  38645-3 0  9997
2 25621  52.0081 174.5206 0009662 196.8320 314.5033 12.62511866240576
GLOBALSTAR M040         
1 25622U 99004B   25364.67179529 -.00000014  00000+0  50307-3 0  9998
2 25622  51.9890 179.5794 0002022  97.0854 342.0872 12.62026723240061
GLOBALSTAR M036         
1 25623U 99004C   25364.40000310 -.00000143  00000+0 -88104-3 0  9991
2 25623  51.9974  83.1363 0010826  69.0259  10.3264 11.86616256202278
GLOBALSTAR M038         
1 25624U 99004D   25365.10078197 -.00000045  00000+0  40956-3 0  9991
2 25624  51.9949 224.4787 0002869  92.8127  74.6878 12.32538240226657
GLOBALSTAR M022         
1 25649U 99012A   25365.09860677 -.00000105  00000+0 -21390-3 0  9996
2 25649  52.0039 115.6014 0002934 183.0272 348.4289 12.02508546200065
GLOBALSTAR M041         
1 25650U 99012B   25365.00684709 -.00000063  00000+0  29067-3 0  9990
2 25650  52.0048   3.3034 0001188 359.3718   0.7117 11.96681501201845
GLOBALSTAR M046         
1 25651U 99012C   25364.65589654  .00000015  00000+0  11426-2 0  9999
2 25651  52.0067  59.7681 0001566 277.9513 254.1924 12.09415966207435
GLOBALSTAR M037         
1 25652U 99012D   25365.16806072 -.00000072  00000+0  17891-3 0  9990
2 25652  52.0022 304.1710 0001504 275.7272 191.3999 12.62458969236151
